P/2011 Q3 (McNaught),e,6.0526,32.0334,310.9649,4.970796,0.0889335,0.53154305,222.4880,05/28.0/2018,2000,g 13.5,4.0
# From MPC 79342
C/2011 Q4 (SWAN),e,147.9650,251.9763,1.9203,41.36841,0.0037043,0.97277282,0.0000,09/18.4479/2011,2000,g 12.5,4.0
# From MPC 88325
C/2011 R1 (McNaught),e,116.1600,221.3020,308.8877,11663,0.0000008,0.99982074,0.0000,10/17.6726/2012,2000,g  6.5,4.0
# From MPC 90269
P/2011 R3 (Novichonok-Gerke),e,19.2402,190.3228,223.8592,4.800917,0.0936953,0.26687661,211.1012,05/28.0/2018,2000,g 11.0,4.0
# From MPC 98558
P/2011 S1 (Gibbs),e,2.6828,218.9512,193.1394,8.608299,0.0390237,0.19974056,53.7147,05/28.0/2018,2000,g  8.0,4.0
# From MPC 80897
C/2011 S2 (Kowalski),e,17.5202,288.0804,192.3492,16.42310,0.0148089,0.93140602,35.6582,05/28.0/2018,2000,g 15.5,4.0
# From MPC 78186
P/2011 U1 (PANSTARRS),e,15.2318,134.9714,353.3496,4.055516,0.1206799,0.41667237,261.7065,05/28.0/2018,2000,g 14.5,4.0
# From MPC105540
P/2011 U2 (Bressi),e,9.9082,264.0540,139.3949,5.113067,0.0852476,0.10084306,203.7711,05/28.0/2018,2000,g 10.0,4.0
# From MPC 78186
C/2011 U3 (PANSTARRS),e,116.7052,228.1454,287.7651,2048,0.0000106,0.99947376,0.0000,06/01.8286/2012,2000,g 14.0,4.0
# From MPC 79022
P/2011 UA134 (Spacewatch-PANSTARRS),e,10.4735,40.5697,32.5613,5.596878,0.0744364,0.62952872,176.4589,05/28.0/2018,2000,g 17.5,4.0
# From MPC 88325
C/2011 UF305 (LINEAR),e,94.0436,297.6436,122.0249,3434,0.0000049,0.99937605,0.0000,07/21.2323/2012,2000,g  9.0,4.0
# From MPC 77406
P/2011 V1 (Boattini),e,7.3804,46.8695,269.1551,3.852156,0.1303612,0.55046967,343.4586,05/28.0/2018,2000,g 15.5,4.0
# From MPC 82718
P/2011 W1 (PANSTARRS),e,3.7178,161.7957,282.7636,4.659001,0.0980087,0.28614294,227.3901,05/28.0/2018,2000,g 11.5,4.0
# From MPC 80897
P/2011 W2 (Rinner),e,13.7583,231.9595,221.2360,3.807876,0.1326416,0.39253175,318.0002,05/28.0/2018,2000,g 13.0,4.0
# From MPC 77807
C/2011 W3 (Lovejoy),e,135.9928,329.4566,55.8789,71.19714,0.0016406,0.99990768,0.0000,12/14.9250/2011,2000,g 14.5,4.0
# From MPC109140
P/2011 WG113 (PANSTARRS),e,9.8366,87.4386,66.4095,3.186075,0.1733086,0.57341578,18.4107,05/28.0/2018,2000,g 17.0,4.0
# From MPC 79342
P/2011 Y2 (Boattini),e,6.3694,309.3942,132.0461,6.239738,0.0632346,0.70965226,143.1846,05/28.0/2018,2000,g 15.0,4.0
# From MPC 79342
C/2011 Y3 (Boattini),e,26.5062,84.8903,340.5501,11.75756,0.0244472,0.70159729,60.5210,05/28.0/2018,2000,g  8.0,4.0
# From MPC 93583
C/2012 A1 (PANSTARRS),h,12/04.0439/2013,120.9340,278.0485,192.0674,1.002154,7.601151,2000,6.0,4.0
# From MPC 91611
C/2012 A2 (LINEAR),e,125.8850,191.4052,101.6347,1253,0.0000222,0.99718491,0.0000,11/06.6418/2012,2000,g  8.5,4.0
# From MPC 80898
P/2012 A3 (SOHO),e,11.1350,175.3804,219.0613,2.583630,0.2373333,0.77245750,191.9135,05/28.0/2018,2000,g 17.0,4.0
# From MPC 94669
P/2012 B1 (PANSTARRS),e,7.6231,36.1548,162.5331,6.518120,0.0592271,0.41168187,104.7346,05/28.0/2018,2000,g  9.0,4.0
# From MPC 82719
C/2012 B3 (La Sagra),e,107.0784,252.9676,50.8266,17776,0.0000004,0.99980050,0.0000,12/06.6997/2011,2000,g 10.0,4.0
# From MPC 83519
C/2012 BJ98 (Lemmon),e,2.6344,123.9836,73.1568,17.27505,0.0137270,0.87474809,28.4831,05/28.0/2018,2000,g 12.5,4.0
# From MPC 89309
C/2012 C1 (McNaught),e,96.1914,300.6045,279.8616,2248,0.0000092,0.99784979,0.0000,02/04.5461/2013,2000,g  7.5,4.0
# From MPC 80898
C/2012 C2 (Bruenjes),h,03/12.6900/2012,162.7390,117.8586,62.3650,1.002667,0.792537,2000,17.0,4.0
# From MPC 78590
P/2012 C3 (PANSTARRS),e,9.0920,135.3677,344.9542,9.748681,0.0323806,0.63011148,359.9758,10/06.0/2011,2000,g 13.0,4.0
# From MPC 84022
C/2012 CH17 (MOSS),e,27.7700,125.7436,138.0380,3883,0.0000041,0.99966865,0.0000,09/29.8077/2012,2000,g 11.0,4.0
# From MPC 84022
C/2012 E1 (Hill),e,122.6100,286.2549,48.8459,1130,0.0000259,0.99335209,0.0000,07/01.2372/2011,2000,g  6.5,4.0
# From MPC 82318
C/2012 E3 (PANSTARRS),e,105.5974,5.5303,103.5750,204.5611,0.0003369,0.98120841,0.0000,05/09.2198/2011,2000,g 10.0,4.0
# From MPC 79868
C/2012 F1 (Gibbs),e,159.5697,130.4541,301.0732,73.22521,0.0015729,0.96494318,3.6030,05/28.0/2018,2000,g 14.0,4.0
# From MPC 84931
P/2012 F2 (PANSTARRS),e,14.7442,227.0894,33.1130,6.323487,0.0619825,0.54323365,116.0520,05/28.0/2018,2000,g 12.0,4.0
# From MPC107683
C/2012 F3 (PANSTARRS),h,04/07.2270/2015,11.3490,164.5986,104.0824,1.003534,3.457921,2000,6.5,4.0
# From MPC 90766
C/2012 F6 (Lemmon),e,82.6460,332.5227,304.8210,403.7759,0.0001215,0.99820769,0.0000,03/24.8798/2013,2000,g 10.0,4.0
# From MPC 79344
P/2012 G1 (PANSTARRS),e,11.6925,282.5440,286.1149,4.172871,0.1156250,0.38072240,359.9500,06/01.0/2012,2000,g 15.0,4.0
# From MPC 80046
C/2012 H2 (McNaught),e,92.7982,184.1189,296.0483,16.11140,0.0152407,0.89254455,33.7989,05/28.0/2018,2000,g 15.5,4.0
# From MPC109140
C/2012 J1 (Catalina),h,12/06.1002/2012,34.0941,235.1584,147.2333,1.000743,3.153296,2000,8.0,4.0
# From MPC103843
C/2012 K1 (PANSTARRS),h,08/28.1784/2014,142.3415,317.7784,203.0988,1.000493,1.051408,2000,5.6,3.2
# From MPC 80898
P/2012 K3 (Gibbs),e,13.1919,125.8580,172.2001,3.623210,0.1429104,0.42387541,296.1549,05/28.0/2018,2000,g 15.0,4.0
# From MPC103843
C/2012 K5 (LINEAR),e,92.7787,279.3315,139.3218,657.8335,0.0000584,0.99826275,0.0000,11/28.4096/2012,2000,g 12.0,4.0
# From MPC 94278
C/2012 K6 (McNaught),e,135.2193,206.9145,338.9942,1747,0.0000135,0.99807234,0.0000,05/20.6077/2013,2000,g  8.5,4.0
# From MPC100577
C/2012 K8 (Lemmon),e,106.1462,312.7790,75.9055,7600,0.0000015,0.99914895,0.0000,08/19.4011/2014,2000,g  6.0,4.0
# From MPC 88326
C/2012 L1 (LINEAR),e,87.2328,271.9491,140.1727,575.1357,0.0000715,0.99607135,0.0000,12/24.9028/2012,2000,g 10.5,4.0
# From MPC 88326
C/2012 L2 (LINEAR),e,70.8365,270.3516,205.8715,546.2621,0.0000772,0.99722457,0.0000,05/07.8133/2013,2000,g 10.0,4.0
# From MPC 84023
C/2012 L3 (LINEAR),e,134.1242,53.4086,106.9355,282.6972,0.0002074,0.98922002,0.0000,06/09.4190/2012,2000,g 13.0,4.0
# From MPC108592
C/2012 LP26 (Palomar),h,08/17.0164/2015,25.3658,153.9784,145.1678,1.001594,6.535855,2000,6.5,4.0
# From MPC 88326
P/2012 NJ (La Sagra),e,84.5004,315.6587,338.2672,8.452200,0.0401097,0.84773296,87.2764,05/28.0/2018,2000,g 14.5,4.0
# From MPC 84625
C/2012 OP (Siding Spring),e,114.8502,267.2429,351.3569,699.6717,0.0000533,0.99483654,0.0000,12/03.1812/2012,2000,g 13.5,2.0
# From MPC 81470
P/2012 O1 (McNaught),e,7.4314,91.9996,238.1676,3.540362,0.1479560,0.59469493,318.8333,05/28.0/2018,2000,g 17.5,4.0
# From MPC 80899
P/2012 O2 (McNaught),e,24.4833,120.7095,183.3671,3.620663,0.1430612,0.53295233,310.9150,05/28.0/2018,2000,g 17.0,4.0
# From MPC 82720
P/2012 O3 (McNaught),e,16.5894,336.3982,344.6452,4.579224,0.1005811,0.64592408,212.7700,05/28.0/2018,2000,g 16.5,4.0
# From MPC 90767
C/2012 Q1 (Kowalski),e,45.2162,184.4164,138.9748,26.03114,0.0074210,0.63643518,17.1011,05/28.0/2018,2000,g  4.0,4.0
# From MPC 89726
C/2012 S1 (ISON),h,11/28.5484/2013,63.8944,295.1170,345.8342,1.000255,0.012530,2000,8.5,3.2
# From MPC 82720
P/2012 S2 (La Sagra),e,8.6889,51.1882,312.6018,4.404613,0.1066209,0.69100998,226.3208,05/28.0/2018,2000,g 17.0,4.0
# From MPC 88327
C/2012 S3 (PANSTARRS),e,113.0069,121.2098,183.6507,3384,0.0000050,0.99931752,0.0000,08/29.9851/2013,2000,g 10.0,4.0
# From MPC 88327
C/2012 S4 (PANSTARRS),e,126.5599,173.0810,163.4142,3830,0.0000042,0.99886746,0.0000,06/26.8068/2013,2000,g  8.5,4.0
# From MPC 82720
P/2012 SB6 (Lemmon),e,10.9522,8.5977,13.3799,3.844009,0.1307758,0.40430807,261.6211,05/28.0/2018,2000,g 14.0,4.0
# From MPC 82320
P/2012 T2 (PANSTARRS),e,12.5538,73.7410,310.7998,5.744945,0.0715773,0.15963554,133.2825,05/28.0/2018,2000,g 10.0,4.0
# From MPC 80900
P/2012 T3 (PANSTARRS),e,9.5587,114.3972,195.4077,6.157196,0.0645104,0.61593802,143.4430,05/28.0/2018,2000,g 15.0,4.0
# From MPC 84023
C/2012 T4 (McNaught),e,24.1690,99.4121,219.7383,118.9095,0.0007601,0.98364924,0.0000,10/11.4455/2012,2000,g 13.5,4.0
# From MPC 84023
C/2012 T5 (Bressi),h,02/24.1696/2013,72.2866,230.2086,318.3028,1.000432,0.326128,2000,13.0,4.0
# From MPC 82720
C/2012 T6 (Kowalski),e,33.3462,186.1170,197.9145,14.04536,0.0187243,0.87394373,39.3942,05/28.0/2018,2000,g 15.0,4.0
# From MPC 87914
P/2012 TK8 (Tenagra),e,6.3106,289.0383,126.8084,4.152930,0.1164588,0.27071322,214.8610,05/28.0/2018,2000,g 13.0,4.0
# From MPC 95208
C/2012 U1 (PANSTARRS),e,56.3523,26.9639,70.2102,1528,0.0000165,0.99654938,0.0000,07/04.3295/2014,2000,g  7.5,4.0
# From MPC 82720
P/2012 U2 (PANSTARRS),e,10.7363,185.2351,228.5617,7.154129,0.0515073,0.49713612,104.3069,05/28.0/2018,2000,g 12.5,4.0
# From MPC 84024
P/2012 US27 (Siding Spring),e,39.3474,49.1691,0.9904,5.164200,0.0839846,0.64752710,162.9983,05/28.0/2018,2000,g 13.5,4.0
# From MPC 84932
C/2012 V1 (PANSTARRS),e,157.8308,85.2938,123.1432,1132,0.0000259,0.99815283,0.0000,07/19.4301/2013,2000,g 12.0,4.0
# From MPC 88695
C/2012 V2 (LINEAR),e,67.1585,262.1677,217.4738,551.2054,0.0000762,0.99733790,0.0000,08/13.9305/2013,2000,g  9.0,4.0
# From MPC 82721
P/2012 WA34 (Lemmon-PANSTARRS),e,6.1218,94.5076,352.7236,4.784447,0.0941795,0.33670033,184.0078,05/28.0/2018,2000,g 13.5,4.0
# From MPC108592
C/2012 X1 (LINEAR),e,44.3559,112.9793,132.2180,163.3364,0.0004721,0.99021829,0.0000,02/22.1761/2014,2000,g  4.8,3.6
# From MPC 88327
C/2012 X2 (PANSTARRS),e,34.1029,271.0661,215.7688,20.51606,0.0106063,0.76783328,19.9939,05/28.0/2018,2000,g  9.0,4.0
# From MPC 83521
C/2012 Y1 (LINEAR),e,20.9051,193.1472,269.1019,37.54405,0.0042844,0.94590567,8.3907,05/28.0/2018,2000,g 15.0,4.0
# From MPC 83521
C/2012 Y3 (McNaught),e,73.6059,122.7091,235.6399,27.82145,0.0067164,0.93633925,14.1337,05/28.0/2018,2000,g 11.0,4.0
# From MPC103843
C/2013 A1 (Siding Spring),e,129.0698,300.9632,2.4397,3342,0.0000051,0.99958032,0.0000,10/24.4655/2014,2000,g  8.2,2.4
# From MPC 84024
P/2013 A2 (Scotti),e,3.3639,355.8205,134.6683,4.009028,0.1227850,0.45465046,237.8459,05/28.0/2018,2000,g 15.5,4.0
# From MPC 82721
P/2013 AL76 (Catalina),e,144.8094,145.9456,27.2338,6.502625,0.0594389,0.68578364,118.2853,05/28.0/2018,2000,g 16.0,4.0
# From MPC 87915
